OBJECT_NAME,OBJECT_ID,EPOCH,MEAN_MOTION,ECCENTRICITY,INCLINATION,RA_OF_ASC_NODE,ARG_OF_PERICENTER,MEAN_ANOMALY,EPHEMERIS_TYPE,CLASSIFICATION_TYPE,NORAD_CAT_ID,ELEMENT_SET_NO,REV_AT_EPOCH,BSTAR,MEAN_MOTION_DOT,MEAN_MOTION_DDOT
STARLINK-31553,2024-060R,2026-06-20T00:41:00.651264,15.27598688,.00013281,43.0032,35.0157,267.6896,92.3803,0,U,59363,999,12579,-.83045817E-4,-.2548E-4,0
STARLINK-31547,2024-060S,2026-06-20T00:23:00.055968,15.27577149,.00013702,43.0046,30.6059,262.8930,97.1766,0,U,59364,999,12584,.46681635E-4,.1022E-4,0
STARLINK-31537,2024-060T,2026-06-19T23:33:13.462848,15.27589951,.00027903,43.0034,42.4556,250.9046,109.1503,0,U,59365,999,12570,-.17791652E-3,-.5157E-4,0
STARLINK-31451,2024-060U,2026-06-20T07:49:36.804288,15.27649307,.000071,43.0005,39.8904,321.2769,38.8032,0,U,59366,999,12576,.35454E-3,.9527E-4,0
STARLINK-31428,2024-060V,2026-06-20T08:06:21.751200,15.27574979,.0000939,43.0028,39.9714,55.9354,304.1587,0,U,59367,999,12576,.13676E-3,.3502E-4,0
STARLINK-31419,2024-060W,2026-06-20T08:15:36.413280,15.27572262,.0000594,43.0023,40.0179,293.0126,67.0663,0,U,59368,999,12576,.41092E-4,.869E-5,0
STARLINK-31583,2024-060X,2026-06-20T01:03:41.985216,15.27580375,.00012187,43.0024,30.8250,284.8593,75.2124,0,U,59369,999,12584,.13043958E-3,.3329E-4,0
STARLINK-31461,2024-060Y,2026-06-20T07:36:59.249088,15.27577762,.0001031,43.0020,29.4358,294.8340,65.2405,0,U,59370,999,12582,.38752E-4,.804E-5,0
RESURS-P 4,2024-061A,2026-06-21T04:21:46.707840,15.32150166,.0002467,97.2751,120.0107,121.9089,238.2394,0,U,59371,999,12437,.78569E-4,.2363E-4,0
STARLINK-31641,2024-062A,2026-06-20T07:21:28.974240,15.34394384,.0001246,53.1594,140.3680,92.3239,267.7906,0,U,59374,999,12535,-.12459E-4,-.797E-5,0
STARLINK-31430,2024-062B,2026-06-20T05:11:27.276288,15.34398093,.00013505,53.1596,141.2226,85.9371,274.1786,0,U,59375,999,12534,.2161878E-4,.354E-5,0
STARLINK-31695,2024-062C,2026-06-20T08:12:09.999360,15.34417579,.0001855,53.1614,138.4510,91.5015,268.6200,0,U,59376,999,12535,.11476E-3,.3505E-4,0
STARLINK-31716,2024-062D,2026-06-20T03:36:50.774688,15.30204028,.00013437,53.1592,91.0951,87.6418,272.4737,0,U,59377,999,12599,.38957377E-4,.795E-5,0
STARLINK-31710,2024-062E,2026-06-20T04:43:23.669472,15.34390640,.0001019,53.1604,138.9653,95.2436,264.8683,0,U,59378,999,12533,.1428492E-3,.4452E-4,0
STARLINK-31698,2024-062F,2026-06-20T07:32:47.414688,15.34381418,.0001286,53.1589,138.2932,84.9105,275.2045,0,U,59379,999,12535,-.6586E-4,-.2599E-4,0
STARLINK-31680,2024-062G,2026-06-19T04:56:02.938848,15.34370379,.00011415,53.1599,145.5803,86.6090,273.5043,0,U,59380,999,12515,.15106532E-3,.4726E-4,0
STARLINK-31713,2024-062H,2026-06-20T07:18:26.786016,15.34393537,.0001261,53.1594,140.3518,85.3147,274.7999,0,U,59381,999,12532,.4875E-4,.1271E-4,0
STARLINK-31705,2024-062J,2026-06-20T04:52:27.703488,15.34401441,.00013826,53.1617,139.0065,84.0879,276.0281,0,U,59382,999,12533,.3121595E-4,.678E-5,0
STARLINK-31715,2024-062L,2026-06-20T05:22:45.600096,15.34411079,.0001254,53.1617,139.1384,83.3034,276.8111,0,U,59384,999,12537,-.51449E-4,-.2115E-4,0
STARLINK-31717,2024-062M,2026-06-20T04:40:20.764992,15.34395673,.00012726,53.1613,138.9537,109.4549,250.6591,0,U,59385,999,12536,.3140631E-4,.685E-5,0
STARLINK-31688,2024-062N,2026-06-20T07:27:32.098752,15.34396542,.0001254,53.1600,140.3901,90.0037,270.1109,0,U,59386,999,12532,.39513E-4,.959E-5,0
STARLINK-31714,2024-062P,2026-06-20T07:38:50.813952,15.34395065,.0001361,53.1596,138.3041,83.6832,276.4326,0,U,59387,999,12534,.39104E-4,.945E-5,0
STARLINK-31643,2024-062Q,2026-06-20T04:34:17.224896,15.34393629,.00012641,53.1605,138.9278,93.3424,266.7723,0,U,59388,999,12537,.3466217E-4,.795E-5,0
STARLINK-31647,2024-062R,2026-06-20T07:14:44.954880,15.34386472,.0001177,53.1617,138.9448,96.6866,263.4271,0,U,59389,999,12538,-.23737E-5,-.456E-5,0
STARLINK-31649,2024-062S,2026-06-20T04:55:29.659296,15.34396453,.00013041,53.1613,139.0205,93.4971,266.6181,0,U,59390,999,12537,.36142267E-4,.845E-5,0
STARLINK-31644,2024-062T,2026-06-20T05:08:25.984896,15.34395369,.00012761,53.1605,141.2099,95.3499,264.7649,0,U,59391,999,12534,-.27578239E-4,-.1308E-4,0
STARLINK-31626,2024-062U,2026-06-20T10:00:01.998720,15.34308290,.0000787,53.1602,138.3035,50.3221,259.1085,0,U,59392,999,589,.17014E-2,.5738E-3,0
STARLINK-31443,2024-062V,2026-06-20T04:39:30.487104,15.34391685,.00013433,53.1607,125.2768,102.8547,257.2605,0,U,59393,999,12556,.1876573E-4,.258E-5,0
STARLINK-31607,2024-062W,2026-06-20T05:13:41.476224,15.34385646,.000136,53.1611,139.0933,97.1591,262.9567,0,U,59394,999,12536,-.78596E-4,-.303E-4,0
YAOGAN-42 01,2024-063A,2026-06-21T03:49:23.403360,15.22893954,.0003938,34.9976,100.8545,335.2868,24.7658,0,U,59395,999,12345,.28774E-3,.688E-4,0
STARLINK-31608,2024-062X,2026-06-20T04:16:14.184480,15.34392871,.0001323,53.1613,139.5565,88.0562,272.0592,0,U,59397,999,12531,.31885865E-4,.701E-5,0
STARLINK-31534,2024-064A,2026-06-20T08:52:04.450080,15.27577624,.0001647,43.0020,195.9231,279.8873,80.1792,0,U,59398,999,12487,.28861E-4,.532E-5,0
STARLINK-31544,2024-064B,2026-06-20T08:31:55.936128,15.27578321,.0001353,42.9998,196.6765,270.3819,89.6878,0,U,59399,999,12492,.24528E-4,.413E-5,0
STARLINK-31545,2024-064C,2026-06-20T02:52:10.485984,15.27538702,.00017133,43.0047,197.4881,281.8945,78.1715,0,U,59400,999,12489,.44918942E-3,.12103E-3,0
STARLINK-31507,2024-064D,2026-06-20T10:52:08.522688,15.27583845,.0001046,43.0033,195.6837,251.7381,108.3357,0,U,59401,999,12488,-.55581E-4,-.1791E-4,0
STARLINK-31543,2024-064E,2026-06-20T08:20:51.300672,15.27567999,.0001284,43.0006,196.6162,269.2283,90.8422,0,U,59402,999,12492,.87118E-4,.2135E-4,0
STARLINK-31366,2024-064F,2026-06-20T03:18:00.688608,15.27575540,.0001234,43.0030,197.6216,279.5238,80.5474,0,U,59403,999,12489,.35939623E-4,.727E-5,0
STARLINK-31374,2024-064G,2026-06-20T07:30:48.085056,15.27580743,.0001297,43.0034,145.5516,281.6002,78.4704,0,U,59404,999,12525,.29318E-4,.545E-5,0
STARLINK-31400,2024-064H,2026-06-20T08:57:37.395936,15.27577556,.0001222,43.0007,195.9482,275.7810,84.2903,0,U,59405,999,12493,.32501E-4,.632E-5,0
STARLINK-31391,2024-064J,2026-06-20T09:03:11.068416,15.27589388,.000179,43.0043,195.9800,279.0299,81.0350,0,U,59406,999,12493,.44151E-6,-.25E-5,0
STARLINK-31387,2024-064K,2026-06-20T10:00:32.230080,15.27584082,.0001275,43.0014,196.2769,269.3076,90.7629,0,U,59407,999,12493,-.93358E-4,-.283E-4,0
STARLINK-31396,2024-064M,2026-06-20T07:45:54.971424,15.27580505,.0001431,43.0015,186.0418,272.8198,87.2490,0,U,59409,999,12498,.32446E-4,.631E-5,0
STARLINK-31412,2024-064N,2026-06-20T03:12:27.231264,15.27577926,.0001537,43.0040,197.5912,275.6622,84.4055,0,U,59410,999,12489,.43209622E-4,.927E-5,0
STARLINK-31483,2024-064P,2026-06-20T08:11:34.816416,15.27573944,.0001548,43.0021,196.5686,262.9046,97.1630,0,U,59411,999,12492,.90193E-4,.222E-4,0
STARLINK-31568,2024-064Q,2026-06-20T08:15:16.695936,15.27577681,.0001263,43.0007,196.5854,271.7493,88.3214,0,U,59412,999,12492,.40135E-4,.842E-5,0
STARLINK-31615,2024-064R,2026-06-20T08:05:21.501024,15.27679873,.0001654,42.9949,189.5899,280.4951,79.5714,0,U,59413,999,12500,.27451E-3,.7322E-4,0
STARLINK-31457,2024-064S,2026-06-20T01:52:38.449920,15.27575935,.00012623,42.9991,191.0819,275.7953,84.2755,0,U,59414,999,12496,.17577265E-4,.222E-5,0
STARLINK-31398,2024-064T,2026-06-19T12:59:29.271264,15.27586907,.00013322,43.0029,200.8830,275.0192,85.0508,0,U,59415,999,12480,.38693434E-4,.803E-5,0
STARLINK-31399,2024-064U,2026-06-20T01:23:30.026688,15.27566818,.00009821,43.0004,197.8745,263.1427,96.9313,0,U,59416,999,12488,.49263684E-4,.1093E-4,0
STARLINK-31401,2024-064V,2026-06-20T03:17:33.101088,15.27577330,.00015956,43.0022,190.6892,276.6564,83.4106,0,U,59417,999,12472,.33000988E-4,.646E-5,0
STARLINK-31414,2024-064W,2026-06-20T08:06:01.566432,15.27578363,.0001482,43.0023,196.5413,272.4794,87.5888,0,U,59418,999,12492,.57975E-4,.1333E-4,0
STARLINK-31415,2024-064X,2026-06-20T08:43:02.258112,15.27591702,.0001507,42.9990,196.7318,276.3574,83.7106,0,U,59419,999,12492,.59901E-4,.1387E-4,0
STARLINK-31466,2024-064Y,2026-06-20T08:37:29.368416,15.27576605,.0001125,43.0000,196.7030,273.3063,86.7660,0,U,59420,999,12492,.10276E-4,.21E-6,0
STARLINK-11087 [DTC],2024-065A,2026-06-20T09:41:11.759712,15.69702920,.0001121,53.1600,307.6778,80.2471,279.8673,0,U,59421,999,12764,.15799E-4,.1325E-4,0
STARLINK-11090 [DTC],2024-065B,2026-06-20T09:20:00.013056,15.69707139,.0001396,53.1594,307.5809,96.5727,263.5449,0,U,59422,999,12766,.13988E-4,.1106E-4,0
STARLINK-11093 [DTC],2024-065C,2026-06-20T09:27:04.464288,15.69814961,.0000689,53.1598,307.6147,22.3209,337.7838,0,U,59423,999,12765,-.17563E-3,-.21902E-3,0
STARLINK-11083 [DTC],2024-065D,2026-06-19T16:45:35.964288,15.69717557,.0001017,53.1595,311.0960,85.0772,275.0362,0,U,59424,999,12749,.12574419E-4,.935E-5,0
STARLINK-11085 [DTC],2024-065E,2026-06-20T09:12:56.056032,15.69710494,.0001364,53.1594,307.5477,93.3913,266.7261,0,U,59425,999,12760,.11649E-4,.822E-5,0
STARLINK-11089 [DTC],2024-065F,2026-06-20T09:48:34.410240,15.69441699,.0001142,53.1592,307.7255,82.3772,277.7375,0,U,59426,999,12765,-.32118E-3,-.38887E-3,0
STARLINK-31757,2024-065G,2026-06-20T06:28:02.042112,15.34397423,.0001599,53.1614,164.5911,95.2764,264.8421,0,U,59427,999,12464,.35992E-4,.84E-5,0
STARLINK-31773,2024-065J,2026-06-20T08:52:34.646016,15.30193330,.0001147,53.1589,166.6242,78.0377,282.0752,0,U,59429,999,12462,.32529E-4,.604E-5,0
STARLINK-31772,2024-065K,2026-06-17T07:15:51.785280,15.30197768,.00010638,53.1600,178.7640,73.3849,286.7268,0,U,59430,999,12418,.50044023E-4,.1123E-4,0
STARLINK-31613,2024-065L,2026-06-20T09:44:42.713088,15.34399091,.0001241,53.1595,164.0116,87.4783,272.6361,0,U,59431,999,12466,.89955E-4,.2664E-4,0
STARLINK-31780,2024-065M,2026-06-20T06:24:59.998176,15.34397217,.0001144,53.1603,164.5620,82.6061,277.5072,0,U,59432,999,12464,.43411E-4,.1091E-4,0
